KUIPER-00027            
1 63740U 25088S   25273.72778633  .00009507  00000+0  12747-2 0  9998
2 63740  51.9005  82.6919 0004468   5.8921 354.2093 14.79918007 23933
KUIPER-00028            
1 63741U 25088T   25274.14474822 -.00166294  00000+0 -22548-1 0  9997
2 63741  51.9002  78.7722 0004836  31.0488 329.0759 14.79508553 24433
KUIPER-00029            
1 63742U 25088U   25274.16667823 -.00029951  00000+0 -39143-2 0  9993
2 63742  51.9010  76.7474 0007655 329.6049 211.7416 14.79939363  4652
KUIPER-00030            
1 63743U 25088V   25273.80118603  .00003949  00000+0  54749-3 0  9998
2 63743  51.9000  97.5620 0013333 264.0592  95.8851 14.79838115 23952
KUIPER-00031            
1 63744U 25088W   25273.74806172 -.00021293  00000+0 -27698-2 0  9993
2 63744  51.8985  83.8719 0003006 288.7179  71.3457 14.79976395 23854
KUIPER-00032            
1 63745U 25088X   25274.17073353  .00028565  00000+0  95714-3 0  9991
2 63745  51.8734  71.4878 0004715 268.8838  91.1605 15.30692429 25066
KUIPER-00033            
1 63746U 25088Y   25273.91853503  .00007779  00000+0  10499-2 0  9996
2 63746  51.8986 113.1014 0004178  31.5093 328.6119 14.79867367 23943
KUIPER-00034            
1 63747U 25088Z   25274.16667823 -.01473952  00000+0 -18851+0 0  9993
2 63747  51.8986  74.3070 0001902 266.3039 219.9264 14.84349194  5867
